fed_fire_id,name,state,county,started,updated,acres_burned,percent_contained,type,fire_behavior,fire_cause,latitude,longitude,source,days_burning,days_sinceupdate,location,info_url,state_name,status
2024-NMSNF-000091,Indios Fire,NM,Rio Arriba,2024-05-19T17:48:00Z,2024-06-07T01:16:09Z,11500,95,WF,Minimal,Natural,36.182269,-106.903152,NFIS,74,55.8,NA,NA,New Mexico,not_contained
2024-AKMID-000119,Mcdonald Fire,AK,Fairbanks North Star,2024-06-08T21:11:00Z,2024-07-26T16:50:45Z,153368.2,0,WF,Minimal,Natural,64.40688,-147.21692,NFIS,53,6.2,NA,NA,Alaska,not_contained
2024-WASES-000173,Pioneer Fire,WA,Chelan,2024-06-08T19:48:00Z,2024-07-31T12:50:39Z,33761,12,WF,Active,Undetermined,48.199206,-120.546799,NFIS,54,1.3,NA,NA,Washington,not_contained
2024-AKUYD-000121,Owl Fire,AK,Yukon-Koyukuk,2024-06-08T22:59:45Z,2024-07-21T19:24:05Z,15963.5,0,WF,Minimal,Natural,66.15,-142.17,NFIS,53,11,NA,NA,Alaska,not_contained
2024-UTFIF-240112,Little Twist Fire,UT,Beaver,2024-06-13T20:00:00Z,2024-07-11T14:37:16Z,5367,85,WF,Minimal,Human,38.186027,-112.473681,NFIS,49,21.2,NA,NA,Utah,not_contained
2024-NMMEA-000382,South Fork Fire,NM,Otero,2024-06-17T15:07:00Z,2024-07-06T16:37:26Z,17569,99,WF,Minimal,Natural,33.343147,-105.791419,NFIS,45,26.2,NA,NA,New Mexico,not_contained
2024-NMMEA-000385,Salt Fire,NM,Otero,2024-06-17T20:20:33Z,2024-07-06T16:32:23Z,7939,99,WF,Minimal,Undetermined,33.239316,-105.70015,NFIS,45,26.2,NA,NA,New Mexico,not_contained
2024-AKUYD-000187,Midnight Fire,AK,Yukon-Koyukuk,2024-06-19T16:07:44Z,2024-07-31T18:38:03Z,50600.8,0,WF,Minimal,Natural,66.12945,-141.079167,NFIS,43,1.1,NA,NA,Alaska,not_contained
2024-OR711S-000382-24,Upper Applegate 3900 Fire,OR,Jackson,2024-06-20T22:15:00Z,2024-06-30T15:05:42Z,1143,100,WF,Minimal,Human,NA,NA,NFIS,41,32.2,NA,NA,Oregon,contained
2024-AKMID-000204,Clear Fire,AK,Fairbanks North Star,2024-06-22T00:56:26Z,2024-06-26T15:19:38Z,23409.8,0,WF,Active,Natural,64.590783,-147.5935,NFIS,40,36.2,NA,NA,Alaska,not_contained
2024-AKUYD-000191,Van Hatten Fire,AK,Yukon-Koyukuk,2024-06-20T02:02:31Z,2024-07-25T18:53:25Z,21516.3,0,WF,Minimal,Natural,65.490867,-142.317533,NFIS,42,7.1,NA,NA,Alaska,not_contained
2024-AKUYD-000192,Noodor Fire,AK,Yukon-Koyukuk,2024-06-20T16:19:27Z,2024-07-23T15:41:46Z,13806.7,0,WF,Active,Natural,65.845283,-147.58945,NFIS,42,9.2,NA,NA,Alaska,not_contained
2024-AKTAD-000213,Deep Fire,AK,Yukon-Koyukuk,2024-06-22T21:56:00Z,2024-07-29T18:41:59Z,24423,0,WF,Minimal,Natural,63.77555,-152.408617,NFIS,39,3.1,NA,NA,Alaska,not_contained
2024-AKGAD-000229,South Fire,AK,Yukon-Koyukuk,2024-06-23T19:27:57Z,2024-07-22T18:35:35Z,5921.6,100,WF,Minimal,Natural,65.971233,-157.246917,NFIS,39,10.1,NA,NA,Alaska,contained
2024-AKTAD-000199,Foraker Fire,AK,Denali,2024-06-21T21:58:04Z,2024-07-23T21:05:25Z,5905.4,0,WF,Minimal,Natural,63.2605,-151.809667,NFIS,40,9,NA,NA,Alaska,not_contained
2024-AKGAD-000215,Fish Fire,AK,Northwest Arctic,2024-06-22T23:18:43Z,2024-07-26T17:36:15Z,1383.4,100,WF,Minimal,Natural,65.32294,-155.422211,NFIS,39,6.1,NA,NA,Alaska,contained
2024-AKGAD-000209,Naluk Fire,AK,Northwest Arctic,2024-06-21T03:14:00Z,2024-07-26T17:35:09Z,23405.7,0,WF,Minimal,Natural,66.8905,-159.506833,NFIS,41,6.1,NA,NA,Alaska,not_contained
2024-COPSF-000779,Oak Ridge Fire,CO,Pueblo,2024-06-22T14:59:15Z,2024-07-07T20:20:13Z,1310,89,WF,Minimal,Natural,38.093072,-105.056205,NFIS,40,25,NA,NA,Colorado,not_contained
2024-AKGAD-000240,Main Fire,AK,Yukon-Koyukuk,2024-06-24T04:19:00Z,2024-07-22T18:31:14Z,28076.6,75,WF,Minimal,Natural,64.611667,-155.231,NFIS,38,10.1,NA,NA,Alaska,not_contained
2024-AKTAD-000248,Slate Fire,AK,Yukon-Koyukuk,2024-06-25T05:30:34Z,2024-07-23T20:23:14Z,26563.5,0,WF,Active,Natural,65.223,-148.6365,NFIS,37,9,NA,NA,Alaska,not_contained
2024-AKTAD-000249,Iver Fire,AK,Fairbanks North Star,2024-06-25T06:11:01Z,2024-07-26T22:51:15Z,24136,0,WF,Active,Natural,65.196667,-148.621667,NFIS,37,5.9,NA,NA,Alaska,not_contained
2024-AKUYD-000253,Globe Fire,AK,Yukon-Koyukuk,2024-06-25T22:04:00Z,2024-07-23T18:45:38Z,20266.3,0,WF,Active,Natural,65.31555,-148.017217,NFIS,36,9.1,NA,NA,Alaska,not_contained
2024-AKFAS-411276,Gold King Creek Fire,AK,Denali,2024-06-27T00:20:00Z,2024-07-29T21:19:19Z,6325.1,0,WF,Moderate,Natural,64.194717,-147.980833,NFIS,35,3,NA,NA,Alaska,not_contained
2024-AKTAD-000254,Grizzly Fire,AK,Denali,2024-06-25T22:12:00Z,2024-07-29T19:40:43Z,35971,0,WF,Minimal,Natural,63.029717,-152.25445,NFIS,36,3,NA,NA,Alaska,not_contained
2024-AKUYD-000262,American Fire,AK,Yukon-Koyukuk,2024-06-26T03:22:36Z,2024-07-28T21:07:46Z,4355,0,WF,Moderate,Natural,65.535667,-146.21,NFIS,36,4,NA,NA,Alaska,not_contained
2024-FLFNF-001924,Owl Creek Fire,FL,Liberty,2024-06-26T17:59:00Z,2024-07-01T11:42:21Z,481,95,WF,Minimal,Natural,30.047922,-84.995728,NFIS,36,31.4,NA,NA,Florida,not_contained
2024-AKTAD-000239,Cecil Dome Fire,AK,Yukon-Koyukuk,2024-06-24T04:25:52Z,2024-07-21T20:22:11Z,537.6,NA,WF,NA,Natural,64.611667,-155.231,NFIS,38,11,NA,NA,Alaska,not_contained
2024-AKSWS-404257,Big Salmon Fork Fire,AK,Yukon-Koyukuk,2024-06-25T22:48:00Z,2024-07-04T04:10:15Z,3133.2,NA,WF,NA,Natural,62.91,-153.89,NFIS,36,28.7,NA,NA,Alaska,not_contained
2024-AKUYD-000272,Bearman Fire,AK,Yukon-Koyukuk,2024-06-26T22:43:21Z,2024-07-25T19:31:13Z,1084,0,WF,Minimal,Natural,66.771667,-146.420833,NFIS,35,7,NA,NA,Alaska,not_contained
2024-AKFAS-411293,Sushana River Fire,AK,Denali,2024-06-28T01:11:23Z,2024-07-24T01:23:12Z,1236.7,NA,WF,NA,Natural,63.901,-149.783833,NFIS,34,8.8,NA,NA,Alaska,not_contained
2024-AKTAD-000303,Kanuti Fire,AK,Yukon-Koyukuk,2024-06-28T22:09:51Z,2024-07-23T21:42:51Z,848,0,WF,Minimal,Natural,66.22,-151.141667,NFIS,33,8.9,NA,NA,Alaska,not_contained
2024-AKTAD-000306,Eagle Fire,AK,Yukon-Koyukuk,2024-06-29T06:23:00Z,2024-07-23T19:04:26Z,4925.6,0,WF,Active,Natural,65.3675,-148.54005,NFIS,33,9.1,NA,NA,Alaska,not_contained
2024-AKTAD-000308,Wilber Fire,AK,Yukon-Koyukuk,2024-06-29T21:52:21Z,2024-07-14T03:03:57Z,436,0,WF,NA,Natural,65.396617,-148.368117,NFIS,32,18.7,NA,NA,Alaska,not_contained
2024-AKUYD-000317,Mogul Fire,AK,Southeast Fairbanks,2024-06-30T17:39:38Z,2024-07-23T15:55:58Z,264.5,0,WF,Minimal,Natural,64.918617,-141.727783,NFIS,32,9.2,NA,NA,Alaska,not_contained
2024-CASQF-001071,Summit Fire,CA,Fresno,2024-06-29T20:37:07Z,2024-07-31T22:53:57Z,19.7,NA,WF,NA,Undetermined,36.775427,-118.724362,NFIS,32,0.9,NA,NA,California,not_contained
2024-AKUYD-000320,Pingo Fire,AK,Southeast Fairbanks,2024-06-30T21:38:18Z,2024-07-23T16:08:25Z,79.5,NA,WF,NA,Natural,64.53,-141.158883,NFIS,31,9.2,NA,NA,Alaska,not_contained
2024-AKUYD-000321,National Fire,AK,Yukon-Koyukuk,2024-06-30T21:47:46Z,2024-07-28T21:17:56Z,15348,0,WF,Minimal,Natural,65.941667,-147.55945,NFIS,31,4,NA,NA,Alaska,not_contained
2024-AKTAD-000324,Melozitna Fire,AK,Yukon-Koyukuk,2024-06-30T22:28:37Z,2024-07-21T20:29:56Z,935,NA,WF,NA,Natural,65.583883,-154.154167,NFIS,31,11,NA,NA,Alaska,not_contained
2024-AKTAD-000313,Bear Fire,AK,Yukon-Koyukuk,2024-06-30T00:13:44Z,2024-07-23T21:33:38Z,253.4,NA,WF,NA,Natural,64.811111,-150.9975,NFIS,32,9,NA,NA,Alaska,not_contained
2024-AKFAS-411278,East Toklat Fire,AK,Denali,2024-06-27T01:24:20Z,2024-07-24T22:52:22Z,20729.6,NA,WF,NA,Natural,63.889,-150.062,NFIS,35,7.9,NA,NA,Alaska,not_contained
2024-AKTAD-000318,Riley Fire,AK,Denali,2024-06-30T20:17:00Z,2024-07-14T17:32:09Z,436,100,WF,Minimal,Human,63.572661,-148.903884,NFIS,32,18.1,NA,NA,Alaska,contained
2024-AKGAD-000334,Hawk Fire,AK,Yukon-Koyukuk,2024-07-01T23:47:00Z,2024-07-22T18:37:14Z,1568.5,NA,WF,NA,Natural,66.065924,-157.135005,NFIS,30,10.1,NA,NA,Alaska,not_contained
2024-AKTAD-000319,Kichaiakaka Fire,AK,Northwest Arctic,2024-06-30T20:44:00Z,2024-07-23T21:50:29Z,181,NA,WF,NA,Natural,67.123717,-154.146633,NFIS,31,8.9,NA,NA,Alaska,not_contained
2024-CAKNF-005159,Shelly Fire,CA,Siskiyou,2024-07-03T20:27:04Z,2024-07-26T03:11:01Z,15520,91,WF,Minimal,Undetermined,41.4633,-123.0545,NFIS,29,6.7,NA,NA,California,not_contained
2024-MTLG05-000352,Fireweed Loop Fire,MT,Lewis and Clark,2024-07-05T01:34:08Z,2024-07-05T02:56:13Z,5.9,NA,WF,NA,Undetermined,46.6412,-111.801583,NFIS,27,27.7,NA,NA,Montana,not_contained
2024-IDCMS-000280,Billy Creek Fire,ID,Nez Perce,2024-07-03T21:56:26Z,2024-07-08T22:31:19Z,3155,100,WF,Minimal,Undetermined,46.1222,-116.948,NFIS,28,23.9,NA,NA,Idaho,contained
2024-CALPF-001542,Lake Fire,CA,Santa Barbara,2024-07-05T22:48:00Z,2024-07-28T00:53:35Z,38664,95,WF,Minimal,Undetermined,34.785,-120.044833,NFIS,26,4.8,NA,NA,California,not_contained
2024-UTFIF-240206,Silver King Fire,UT,Piute,2024-07-05T19:11:00Z,2024-07-25T20:30:16Z,18222,88,WF,Minimal,Natural,38.4814,-112.37,NFIS,27,7,NA,NA,Utah,not_contained
2024-NMGNF-000334,Lolo Fire,NM,Catron,2024-07-05T14:20:00Z,2024-07-13T10:50:00Z,438,100,WF,Minimal,Natural,32.862283,-107.781683,NFIS,27,19.4,NA,NA,New Mexico,contained
2024-CABDF-009908,Vista Fire,CA,San Bernardino,2024-07-07T16:51:00Z,2024-07-15T00:02:43Z,2936,95,WF,Minimal,Undetermined,34.248302,-117.494141,NFIS,25,17.9,NA,NA,California,not_contained
2024-ORMED-009002,Salt Creek Fire,OR,Jackson,2024-07-07T23:08:00Z,2024-07-15T14:50:58Z,4102,100,WF,Minimal,Human,42.47755,-122.603,NFIS,24,17.2,NA,NA,Oregon,contained
2024-NMGNF-000318,Ridge Fire,NM,Catron,2024-07-02T17:36:51Z,2024-07-18T11:08:55Z,4257,85,WF,Minimal,Natural,33.405333,-108.552167,NFIS,30,14.4,NA,NA,New Mexico,not_contained
2024-ORMAF-002497,Upper Pine Fire,OR,Harney,2024-06-01T20:16:00Z,2024-08-01T15:49:47Z,1086,100,WF,Minimal,Human,43.80658,-118.757283,NFIS,61,0.2,NA,NA,Oregon,contained
2024-WAOWF-000367,Shoofly Fire,WA,Chelan,2024-07-08T21:11:00Z,2024-07-16T01:24:29Z,104,63,WF,Minimal,Undetermined,47.8797,-121.101,NFIS,23,16.8,NA,NA,Washington,not_contained
2024-WYBTF-002401,Horse Creek Fire,WY,Lincoln,2024-07-01T16:52:00Z,2024-07-23T14:16:53Z,43,90,WF,Minimal,Natural,42.973611,-110.592778,NFIS,31,9.3,NA,NA,Wyoming,not_contained
2024-OR954S-000514,Larch Creek Fire,OR,Wasco,2024-07-09T19:32:00Z,2024-07-22T18:56:26Z,18286,100,WF,Minimal,Human,45.348022,-121.266768,NFIS,23,10.1,NA,NA,Oregon,contained
2024-ORMAF-002502,Falls Fire,OR,Harney,2024-07-10T14:55:00Z,2024-08-01T15:50:02Z,142729,73,WF,Active,Human,43.852961,-119.426758,NFIS,22,0.2,NA,NA,Oregon,not_contained
2024-ORVAD-240129,Cow Valley Fire,OR,Malheur,2024-07-11T13:10:00Z,2024-07-19T10:52:06Z,133490,99,WF,Minimal,Undetermined,44.364214,-117.760534,NFIS,21,13.4,NA,NA,Oregon,not_contained
2024-ORVAD-240128,Bonita Road Fire,OR,Malheur,2024-07-11T11:14:00Z,2024-07-12T18:05:45Z,2727,100,WF,Minimal,Undetermined,44.291833,-117.803307,NFIS,21,20.1,NA,NA,Oregon,contained
2024-IDSTF-000180,Bench Lake Fire,ID,Custer,2024-07-11T18:26:32Z,2024-07-23T13:11:07Z,2595,85,WF,Minimal,Undetermined,44.09959,-115.004025,NFIS,21,9.3,NA,NA,Idaho,not_contained
2024-AZSCA-001115,Watch Fire,AZ,Gila,2024-07-11T05:02:00Z,2024-07-12T18:40:51Z,2162,100,WF,Minimal,Human,33.4377,-110.499,NFIS,21,20.1,NA,NA,Arizona,contained
2024-AZSCA-001110,Buckhorn Fire,AZ,Graham,2024-07-10T19:23:38Z,2024-07-19T11:02:07Z,1006,51,WF,Minimal,Natural,33.546389,-109.540258,NFIS,22,13.4,NA,NA,Arizona,not_contained
2024-AZBAR-000417,Brown Fire,AZ,Pima,2024-07-11T23:06:09Z,2024-07-14T01:02:51Z,1422,100,WF,Minimal,Undetermined,31.7694,-111.468717,NFIS,20,18.8,NA,NA,Arizona,contained
2024-AZTNF-001130,Black Fire,AZ,Maricopa,2024-07-12T04:23:05Z,2024-07-20T21:37:30Z,11162,85,WF,Minimal,Natural,33.608889,-111.117778,NFIS,20,12,NA,NA,Arizona,not_contained
2024-MTLG29-000236,Deadman Fire,MT,Rosebud,2024-07-12T09:00:00Z,2024-07-20T03:43:40Z,19982,100,WF,Minimal,Natural,45.2458,-106.635,NFIS,20,12.7,NA,NA,Montana,contained
2024-MTLG29-000245,Mcghee Fire,MT,Rosebud,2024-07-12T19:21:00Z,2024-07-20T03:43:40Z,19223,100,WF,Minimal,Natural,45.265232,-106.481902,NFIS,20,12.7,NA,NA,Montana,contained
2024-UTASF-100141,Speirs Fire,UT,Daggett,2024-07-13T18:33:00Z,2024-07-23T02:49:01Z,715,97,WF,Moderate,Natural,40.877667,-109.436694,NFIS,19,9.7,NA,NA,Utah,not_contained
2024-ORPRD-000404,Lone Rock Fire,OR,Gilliam,2024-07-13T23:24:24Z,2024-08-01T11:49:35Z,137221,80,WF,Active,Undetermined,45.267022,-120.01462,NFIS,18,0.4,NA,NA,Oregon,not_contained
2024-MTLG22-000262,Four Mile Fire,MT,Big Horn,2024-07-13T18:06:53Z,2024-07-18T11:31:40Z,2082,100,WF,Minimal,Natural,45.229833,-106.8385,NFIS,19,14.4,NA,NA,Montana,contained
2024-MTLG29-000249,Prairie Fire,MT,Rosebud,2024-07-12T20:32:58Z,2024-07-18T11:31:40Z,6540,100,WF,Minimal,Natural,45.286573,-106.695601,NFIS,19,14.4,NA,NA,Montana,contained
2024-MTLNF-240427,Miller Peak Fire,MT,Missoula,2024-07-14T22:38:00Z,2024-07-27T19:54:27Z,2724,65,WF,Minimal,Undetermined,46.7575,-113.887,NFIS,17,5,NA,NA,Montana,not_contained
2024-CAKRN-031252,White Fire,CA,Kern,2024-07-13T18:09:00Z,2024-07-21T18:03:25Z,5563,98,WF,Minimal,Natural,NA,NA,NFIS,19,11.1,NA,NA,California,not_contained
2024-AZASF-000431,Reservation Creek Fire,AZ,Apache,2024-07-13T18:08:00Z,2024-07-18T02:34:02Z,270,75,WF,Minimal,Natural,33.698254,-109.475283,NFIS,19,14.7,NA,NA,Arizona,not_contained
2024-CAKRN-031290,Rancho Fire,CA,Kern,2024-07-13T21:29:00Z,2024-07-15T20:44:55Z,9950,98,WF,Minimal,Natural,NA,NA,NFIS,18,17,NA,NA,California,not_contained
2024-CASQF-001240,Trout Fire,CA,Tulare,2024-07-13T15:37:00Z,2024-07-29T05:18:24Z,23369,49,WF,Active,Undetermined,35.980794,-118.294921,NFIS,19,3.6,NA,NA,California,not_contained
2024-CASQF-001281,Long Fire,CA,Tulare,2024-07-15T21:30:00Z,2024-07-24T02:52:43Z,9204,95,WF,Minimal,Undetermined,35.826167,-118.177167,NFIS,16,8.7,NA,NA,California,not_contained
2024-IDPDS-000349,Texas Fire,ID,Latah,2024-07-15T22:45:00Z,2024-07-23T19:12:32Z,1582,90,WF,Minimal,Undetermined,46.633697,-116.592735,NFIS,16,9.1,NA,NA,Idaho,not_contained
2024-WASES-020209,Cougar Creek Fire,WA,Asotin,2024-07-16T01:30:00Z,2024-08-01T18:27:47Z,17602,29,WF,Active,Undetermined,46.045305,-117.320828,NFIS,16,0.1,NA,NA,Washington,not_contained
2024-CASRF-000586,Hill Fire,CA,Humboldt,2024-07-16T00:40:42Z,2024-07-30T04:09:05Z,7224,77,WF,Minimal,Undetermined,40.7529,-123.626,NFIS,16,2.7,NA,NA,California,not_contained
2024-MTCRA-240376,Thompson Creek Fire,MT,Big Horn,2024-07-12T17:14:00Z,2024-07-25T00:23:51Z,27.94,NA,WF,NA,Undetermined,45.402833,-107.084667,NFIS,20,7.8,NA,NA,Montana,not_contained
2024-ORVAD-240141,Durkee Fire,OR,Baker,2024-07-17T15:57:17Z,2024-07-31T18:44:04Z,293882,58,WF,Moderate,Natural,44.586739,-117.461014,NFIS,15,1.1,NA,NA,Oregon,not_contained
2024-ORUPF-240220,Trail Fire,OR,Douglas,2024-07-17T02:39:00Z,2024-07-31T15:24:43Z,839,40,WF,Active,Natural,43.177916,-122.308559,NFIS,15,1.2,NA,NA,Oregon,not_contained
2024-ORWIF-240195,Ore Fire,OR,Lane,2024-07-17T16:55:15Z,2024-08-01T11:04:01Z,1486,29,WF,Active,Undetermined,44.2383,-122.247917,NFIS,15,0.4,NA,NA,Oregon,not_contained
2024-ORCLP-240223,Middle Fork Fire,OR,Klamath,2024-07-17T21:55:00Z,2024-08-01T13:53:44Z,728,1,WF,Moderate,Undetermined,43.028,-122.234167,NFIS,14,0.3,NA,NA,Oregon,not_contained
2024-OR973S-000224,Pilot Rock Fire,OR,Umatilla,2024-07-17T21:48:00Z,2024-07-19T04:00:53Z,19000,94,WF,Minimal,Natural,45.452117,-118.925467,NFIS,14,13.7,NA,NA,Oregon,not_contained
2024-OR973S-000226,Nf Owens Fire,OR,Umatilla,2024-07-17T22:27:00Z,2024-07-23T05:06:49Z,4484,90,WF,Active,Natural,45.452117,-118.925467,NFIS,14,9.6,NA,NA,Oregon,not_contained
2024-WACOA-240089,Swawilla I Fire,WA,Ferry,2024-07-18T04:30:00Z,2024-08-01T12:26:32Z,48970,60,WF,Active,Natural,47.930232,-118.775253,NFIS,14,0.3,NA,NA,Washington,not_contained
2024-ORDEF-000447,Round Mountain Fire,OR,Deschutes,2024-07-17T20:28:50Z,2024-07-27T12:29:36Z,108,75,WF,Minimal,Undetermined,43.753904,-121.713445,NFIS,14,5.3,NA,NA,Oregon,not_contained
2024-AZTNF-001181,Deer Fire,AZ,Yavapai,2024-07-17T21:52:43Z,2024-07-31T18:43:24Z,308,18,WF,Moderate,Natural,34.05492,-111.44329,NFIS,14,1.1,NA,NA,Arizona,not_contained
2024-ORUPF-240258,Lemolo Fire,OR,Douglas,2024-07-17T21:46:00Z,2024-07-31T00:08:30Z,873,0,WF,NA,Natural,43.321441,-122.176655,NFIS,14,1.8,NA,NA,Oregon,not_contained
2024-WAOWF-000435,Easy Fire,WA,Skagit,2024-07-18T02:55:00Z,2024-08-01T03:40:26Z,528,0,WF,Active,Natural,48.592406,-120.833515,NFIS,14,0.7,NA,NA,Washington,not_contained
2024-ORDEF-000445,Wickiup Fire,OR,Deschutes,2024-07-17T20:04:19Z,2024-07-27T12:29:36Z,168,85,WF,Minimal,Undetermined,43.739382,-121.713399,NFIS,15,5.3,NA,NA,Oregon,not_contained
2024-OR973S-000232,Snake Fire,OR,Umatilla,2024-07-17T23:00:00Z,2024-07-22T21:49:06Z,13557,100,WF,Active,Undetermined,45.061703,-119.01245,NFIS,14,9.9,NA,NA,Oregon,contained
2024-OR771S-000028,Lane 1 Fire,OR,Lane,2024-07-17T22:10:00Z,2024-08-01T12:52:47Z,2112,7,WF,Active,Natural,43.6504488,-122.79171324000001,NFIS,14,0.3,NA,NA,Oregon,not_contained
2024-OR953S-024112,Boneyard Fire,OR,Grant,2024-07-17T22:42:43Z,2024-07-24T19:43:27Z,49716,100,WF,Active,Natural,44.9577,-119.4714,NFIS,14,8,NA,NA,Oregon,contained
2024-ORDEF-000438,Red Fire,OR,Klamath,2024-07-17T17:35:00Z,2024-08-01T11:09:54Z,428,0,WF,Moderate,Natural,43.49152,-122.051685,NFIS,15,0.4,NA,NA,Oregon,not_contained
2024-ORUPF-240227,Pine Bench Fire,OR,Douglas,2024-07-17T03:48:00Z,2024-08-01T14:03:50Z,2117,10,WF,NA,Natural,43.307073,-122.528034,NFIS,15,0.3,NA,NA,Oregon,not_contained
2024-ORUPF-240241,Watson Fire,OR,Douglas,2024-07-17T17:05:00Z,2024-08-01T14:03:50Z,236,50,WF,NA,Natural,43.263509,-122.292463,NFIS,15,0.3,NA,NA,Oregon,not_contained
2024-ORPRD-050265,Monkey Creek Fire,OR,Morrow,2024-07-18T22:13:00Z,2024-08-01T15:10:14Z,110414,19,WF,Extreme,Undetermined,45.017663,-119.193451,NFIS,13,0.2,NA,NA,Oregon,not_contained
2024-ORUPF-240310,Trep Fire,OR,Douglas,2024-07-19T20:50:22Z,2024-07-31T15:24:43Z,133,0,WF,NA,Natural,43.205486,-122.312253,NFIS,12,1.2,NA,NA,Oregon,not_contained
2024-ORUPF-240246,Brodie Fire,OR,Douglas,2024-07-17T18:32:44Z,2024-07-31T15:24:43Z,121,0,WF,NA,Natural,43.431833,-122.116,NFIS,15,1.2,NA,NA,Oregon,not_contained
2024-WANES-240099,Bridge Creek Fire,WA,Ferry,2024-07-19T21:09:00Z,2024-08-01T16:37:43Z,3950,50,WF,Moderate,Undetermined,48.254856,-118.682899,NFIS,12,0.2,NA,NA,Washington,not_contained
2024-HIKAUX-KI-22-0006,Kekaha Fire Fire,HI,Kauai,2024-07-19T07:30:46Z,2024-07-20T19:02:34Z,1306,NA,WF,NA,NA,NA,NA,NFIS,13,12.1,NA,NA,Hawaii,not_contained
2024-ORNOD-771031,Clark 900 Fire,OR,Lane,2024-07-18T15:23:00Z,2024-07-27T03:55:30Z,3747,0,WF,Active,Natural,43.57076504,-122.76171418,NFIS,14,5.7,NA,NA,Oregon,not_contained
2024-ORUPF-240223,Clearwater Fire,OR,Douglas,2024-07-17T03:23:35Z,2024-08-01T14:03:50Z,1,100,WF,NA,Natural,43.247125,-122.23608,NFIS,15,0.3,NA,NA,Oregon,contained
2024-ORUPF-240265,Pig Iron Fire,OR,Douglas,2024-07-17T22:56:00Z,2024-08-01T14:03:50Z,27,95,WF,NA,Natural,43.263509,-122.351917,NFIS,14,0.3,NA,NA,Oregon,not_contained
2024-CASQF-001285,Happy Fire,CA,Fresno,2024-07-16T16:18:46Z,2024-08-01T00:10:52Z,0.25,0,WF,Minimal,Undetermined,36.850037,-118.738174,NFIS,16,0.8,NA,NA,California,not_contained
2024-ORUPF-240259,Garwood Fire,OR,Douglas,2024-07-17T21:54:37Z,2024-08-01T14:03:50Z,5,95,WF,NA,Natural,43.133913,-122.292442,NFIS,14,0.3,NA,NA,Oregon,not_contained
2024-WASPD-000436,Road R Fire,WA,Grant,2024-07-18T03:57:40Z,2024-07-20T23:41:11Z,275,20,WF,Active,Natural,47.421667,-119.105,NFIS,14,11.9,NA,NA,Washington,not_contained
2024-ORWIF-240210,Pyramid Fire,OR,Linn,2024-07-17T19:26:00Z,2024-07-31T18:04:04Z,1193,13,WF,Active,Undetermined,44.232129,-122.156819,NFIS,15,1.1,NA,NA,Oregon,not_contained
2024-OR951S-000471,0471 Od Cat Rock Fire,OR,Crook,2024-07-20T22:24:00Z,2024-07-21T04:18:39Z,219,100,WF,Minimal,Undetermined,44.39608,-120.82137,NFIS,11,11.7,NA,NA,Oregon,contained
2024-ORPRD-000465,0465 Cr Jackpine Fire,OR,Deschutes,2024-07-19T19:35:00Z,2024-07-25T09:24:07Z,180,95,WF,Minimal,Undetermined,43.6376,-121.560383,NFIS,13,7.5,NA,NA,Oregon,not_contained
2024-ORUPF-240252,Ooya Fire,OR,Douglas,2024-07-17T20:18:20Z,2024-07-31T22:30:06Z,190,0,WF,NA,Natural,43.389833,-122.206333,NFIS,15,0.9,NA,NA,Oregon,not_contained
2024-UTNWS-200457,Sandhurst Fire,UT,Salt Lake,2024-07-20T22:26:00Z,2024-07-30T21:21:26Z,207,100,WF,Minimal,Human,40.794385,-111.890653,NFIS,11,2,NA,NA,Utah,contained
2024-AKUYD-000346,Ettrain Fire,AK,Southeast Fairbanks,2024-07-03T19:05:39Z,2024-07-23T16:04:54Z,164.1,NA,WF,NA,Natural,65.43945,-141.136117,NFIS,29,9.2,NA,NA,Alaska,not_contained
2024-ORUPF-240226,Potter Fire,OR,Douglas,2024-07-17T03:44:40Z,2024-07-31T15:24:43Z,747,0,WF,NA,Natural,43.346637,-122.312321,NFIS,15,1.2,NA,NA,Oregon,not_contained
2024-ORUPF-240256,Lost Bucket Fire,OR,Lane,2024-07-17T21:25:00Z,2024-08-01T13:08:30Z,34,100,WF,NA,Natural,43.489083,-122.737667,NFIS,14,0.3,NA,NA,Oregon,contained
2024-ORUPF-240260,Horse Heaven Creek Fire,OR,Lane,2024-07-17T22:28:20Z,2024-08-01T13:08:30Z,529,NA,WF,NA,Natural,43.556619,-122.598232,NFIS,14,0.3,NA,NA,Oregon,not_contained
2024-ORUPF-240303,Trail Fire,OR,Douglas,2024-07-19T15:45:00Z,2024-08-01T14:03:50Z,5486.5,11,CX,Moderate,Undetermined,43.263262,-122.276208,NFIS,13,0.3,NA,NA,Oregon,not_contained
2024-ORMHF-000639,Whisky Creek Fire,OR,Hood River,2024-07-20T18:01:00Z,2024-07-28T11:42:05Z,891,0,WF,Moderate,Human,45.64602,-121.82219,NFIS,12,4.4,NA,NA,Oregon,not_contained
2024-OR953S-024122,Courtrock Fire,OR,Grant,2024-07-21T21:54:18Z,2024-08-01T13:25:31Z,19282,41,WF,Moderate,Natural,44.717345,-119.398688,NFIS,10,0.3,NA,NA,Oregon,not_contained
2024-ORUPF-240308,Reynolds Butte Fire,OR,Douglas,2024-07-19T18:21:00Z,2024-08-01T13:08:30Z,245,NA,WF,NA,Natural,43.409133,-122.54355,NFIS,13,0.3,NA,NA,Oregon,not_contained
2024-ORUPF-240282,No Man Fire,OR,Lane,2024-07-18T19:09:28Z,2024-08-01T13:08:30Z,699,NA,WF,NA,Natural,43.459138,-122.732023,NFIS,14,0.3,NA,NA,Oregon,not_contained
2024-ORUPF-240232,Fuller Lake Fire,OR,Douglas,2024-07-17T14:06:00Z,2024-08-01T13:08:30Z,71,NA,WF,NA,Natural,43.40071,-122.480247,NFIS,15,0.3,NA,NA,Oregon,not_contained
2024-ORUPF-240245,Salmon 33 Fire,OR,Lane,2024-07-17T17:36:10Z,2024-08-01T13:08:30Z,176,NA,WF,NA,Natural,43.447,-122.6832,NFIS,15,0.3,NA,NA,Oregon,not_contained
2024-AZTNF-001200,Davenport Fire,AZ,Yavapai,2024-07-19T22:21:39Z,2024-07-22T18:11:04Z,447,93,WF,Minimal,Natural,34.060283,-111.529283,NFIS,12,10.1,NA,NA,Arizona,not_contained
2024-AZTNF-001220,Cane Springs Fire,AZ,Yavapai,2024-07-20T17:46:13Z,2024-07-22T17:59:34Z,109,0,WF,Minimal,Natural,34.294153,-111.560639,NFIS,12,10.1,NA,NA,Arizona,not_contained
2024-ORUPF-240235,Jack Saddle Fire,OR,Douglas,2024-07-17T14:50:30Z,2024-07-27T03:55:30Z,1248,0,WF,Active,Natural,43.5395,-122.748833,NFIS,15,5.7,NA,NA,Oregon,not_contained
2024-AZSCA-001233,Oak Fire,AZ,Graham,2024-07-20T22:21:01Z,2024-07-22T20:44:11Z,295.4,NA,WF,NA,Natural,33.14705,-109.7673,NFIS,11,10,NA,NA,Arizona,not_contained
2024-AZSCA-001236,Allen Trap Fire,AZ,Gila,2024-07-20T22:44:24Z,2024-07-22T20:40:32Z,1654,0,WF,Minimal,Natural,33.4808,-110.168,NFIS,11,10,NA,NA,Arizona,not_contained
2024-CATNF-000855,Royal Fire,CA,Placer,2024-07-07T23:09:00Z,2024-07-22T23:37:15Z,215,100,WF,Minimal,Undetermined,39.2393,-120.4168,NFIS,24,9.9,NA,NA,California,contained
2024-ORMAF-002523,Telephone Fire,OR,Harney,2024-07-22T19:19:55Z,2024-08-01T19:22:28Z,37103,23,WF,Active,Natural,43.753783,-118.8615,NFIS,10,0,NA,NA,Oregon,not_contained
2024-ORVAD-240159,Thompson Fire,OR,Baker,2024-07-23T00:02:31Z,2024-07-30T22:35:00Z,31557,51,WF,Active,Natural,44.621495,-117.423506,NFIS,9,1.9,NA,NA,Oregon,not_contained
2024-WAWFS-000457,Davin Road Fire,WA,Franklin,2024-07-21T15:40:00Z,2024-07-23T03:52:43Z,1782,NA,WF,NA,Undetermined,46.613152,-118.310652,NFIS,11,9.7,NA,NA,Washington,not_contained
2024-ORWIF-240203,Chalk Fire,OR,Lane,2024-07-17T18:36:13Z,2024-08-01T12:47:44Z,3525,40,WF,Active,Undetermined,43.887333,-122.431,NFIS,15,0.3,NA,NA,Oregon,not_contained
2024-ORWIF-240214,Moss Mountain Fire,OR,Lane,2024-07-17T19:52:00Z,2024-08-01T12:47:44Z,246,0,WF,Moderate,Undetermined,43.577542,-122.260891,NFIS,15,0.3,NA,NA,Oregon,not_contained
2024-CAPNF-000832,Mill Fire,CA,Plumas,2024-07-22T21:34:07Z,2024-07-31T03:49:02Z,2962,98,WF,NA,Undetermined,39.740583,-120.522799,NFIS,9,1.7,NA,NA,California,not_contained
2024-CAPNF-000834,Smith Fire,CA,Plumas,2024-07-22T22:17:08Z,2024-07-24T05:19:11Z,45,100,WF,NA,Undetermined,39.9173,-120.56,NFIS,9,8.6,NA,NA,California,contained
2024-WAWFS-000470,Big Horn Fire,WA,Klickitat,2024-07-22T20:07:17Z,2024-07-29T16:57:38Z,51569,100,WF,Minimal,Undetermined,45.917347,-120.293683,NFIS,10,3.1,NA,NA,Washington,contained
2024-ALBOR-240246,Rookery Fire,AL,Baldwin,2024-07-17T19:41:22Z,2024-07-23T16:03:59Z,399,95,WF,Minimal,Natural,30.2355,-87.928194,NFIS,15,9.2,NA,NA,Alabama,not_contained
2024-OR954S-000661,Microwave Tower Fire,OR,Hood River,2024-07-22T22:41:52Z,2024-07-30T20:54:27Z,1311,79,WF,Moderate,Human,45.670036,-121.428022,NFIS,9,2,NA,NA,Oregon,not_contained
2024-ORUPF-240270,Adam Mountain Fire,OR,Lane,2024-07-18T00:52:00Z,2024-08-01T12:52:47Z,9997,7,WF,Active,Natural,43.61765,-122.727517,NFIS,14,0.3,NA,NA,Oregon,not_contained
2024-ORWIF-240237,Coffeepot Fire,OR,Lane,2024-07-21T10:57:00Z,2024-08-01T12:47:44Z,3591,0,WF,Active,Undetermined,43.661688,-122.401572,NFIS,11,0.3,NA,NA,Oregon,not_contained
2024-ORWIF-240193,Mckinley Creek Fire,OR,Lane,2024-07-17T15:40:00Z,2024-08-01T12:47:44Z,10,NA,WF,NA,Natural,43.86645,-122.44355,NFIS,15,0.3,NA,NA,Oregon,not_contained
2024-ORWIF-240217,217 Mf Fire,OR,Lane,2024-07-17T21:06:40Z,2024-08-01T12:47:44Z,26,NA,WF,NA,Natural,43.504333,-122.1605,NFIS,14,0.3,NA,NA,Oregon,not_contained
2024-ORWIF-240208,208 Mf Fire,OR,Lane,2024-07-17T18:59:05Z,2024-08-01T12:47:44Z,145,0,WF,Minimal,Undetermined,43.519266,-122.130979,NFIS,15,0.3,NA,NA,Oregon,not_contained
2024-ORWIF-240207,Tire Mountain Mf Fire,OR,Lane,2024-07-17T18:51:33Z,2024-08-01T12:47:44Z,7.5,NA,WF,NA,Undetermined,43.840667,-122.524667,NFIS,15,0.3,NA,NA,Oregon,not_contained
2024-MTLG16-000328,Morgan Creek - Dawson Fire,MT,Dawson,2024-07-10T18:00:00Z,2024-07-23T22:59:25Z,14,NA,WF,NA,Human,47.337113,-104.771205,NFIS,22,8.9,NA,NA,Montana,not_contained
2024-ORUPF-240286,Mineral Fire,OR,Lane,2024-07-18T21:59:13Z,2024-07-27T03:55:30Z,1201,0,WF,Active,Natural,43.590411,-122.732656,NFIS,13,5.7,NA,NA,Oregon,not_contained
2024-WYSHF-000225,Clearwater Fire,WY,Park,2024-07-19T22:30:00Z,2024-07-31T17:57:03Z,1167,0,WF,Moderate,Natural,44.458987,-109.671793,NFIS,12,1.1,NA,NA,Wyoming,not_contained
2024-ORUPF-240198,Elephant Fire,OR,Douglas,2024-07-23T18:36:00Z,2024-08-01T14:03:50Z,0.7,95,WF,NA,Natural,43.282683,-122.199066,NFIS,9,0.3,NA,NA,Oregon,not_contained
2024-CALPF-001757,Apache Fire,CA,Ventura,2024-07-24T01:31:00Z,2024-07-28T00:53:35Z,1538,80,WF,Minimal,Undetermined,34.7557,-119.409,NFIS,8,4.8,NA,NA,California,not_contained
2024-ORUPF-240218,Lost Fire,OR,Douglas,2024-07-17T02:19:00Z,2024-07-31T15:24:43Z,25,0,WF,NA,Natural,43.205486,-122.274136,NFIS,15,1.2,NA,NA,Oregon,not_contained
2024-MTLG16-000329,Cracker Box - Dawson Fire,MT,Dawson,2024-07-10T23:00:00Z,2024-07-24T15:52:24Z,13.4,NA,WF,NA,Human,47.008203,-105.105912,NFIS,21,8.2,NA,NA,Montana,not_contained
2024-WAMSF-000216,Pincer Two Fire,WA,Skagit,2024-07-18T23:09:00Z,2024-07-29T02:17:06Z,82,0,WF,Minimal,Natural,48.470633,-121.143783,NFIS,13,3.8,NA,NA,Washington,not_contained
2024-AZCRD-001013,Windy Mesa Fire,AZ,Mohave,2024-07-22T18:51:00Z,2024-07-24T17:56:59Z,824,75,WF,Minimal,Natural,34.678333,-113.466333,NFIS,10,8.1,NA,NA,Arizona,not_contained
2024-AKUYD-000382,Sinnott Fire,AK,Southeast Fairbanks,2024-07-22T05:38:38Z,2024-07-25T17:40:19Z,576.6,0,WF,Minimal,Natural,64.850333,-141.294333,NFIS,10,7.1,NA,NA,Alaska,not_contained
2024-ORVAD-240166,Powder Fire,OR,Baker,2024-07-23T15:01:00Z,2024-07-24T21:21:09Z,54563,73,CX,Minimal,Undetermined,44.676042,-117.288303,NFIS,9,8,NA,NA,Oregon,not_contained
2024-ORUPF-240331,Bear Trap Fire,OR,Douglas,2024-07-24T15:52:30Z,2024-08-01T14:03:50Z,64.2,50,WF,NA,Natural,43.230767,-122.270167,NFIS,8,0.3,NA,NA,Oregon,not_contained
2024-ORWIF-240255,Slate Fire,OR,Linn,2024-07-23T22:03:00Z,2024-07-27T21:04:20Z,91,77,WF,Minimal,Undetermined,44.639016,-122.142931,NFIS,8,5,NA,NA,Oregon,not_contained
2024-ORUPF-240301,Quartz Fire,OR,Lane,2024-07-19T02:29:45Z,2024-07-27T03:55:30Z,974,0,WF,Active,Undetermined,43.557383,-122.757367,NFIS,13,5.7,NA,NA,Oregon,not_contained
2024-AZTNF-001263,Skunk Fire,AZ,Gila,2024-07-22T23:05:20Z,2024-07-24T22:22:53Z,50,NA,WF,NA,Natural,34.036966,-111.114567,NFIS,9,7.9,NA,NA,Arizona,not_contained
2024-OROCF-000501,Crazy Creek Fire,OR,Crook,2024-07-22T18:07:00Z,2024-08-01T19:54:31Z,31440,5,WF,Active,Natural,44.357962,-120.030697,NFIS,10,0,NA,NA,Oregon,not_contained
2024-OROCF-000502,0502 Pr Durgan Fire,OR,Crook,2024-07-22T18:43:00Z,2024-07-24T22:31:04Z,3200,100,WF,Minimal,Undetermined,44.184731,-119.932602,NFIS,10,7.9,NA,NA,Oregon,contained
2024-OROCF-000498,0498 Pr Kitty Creek Fire,OR,Wheeler,2024-07-22T14:45:00Z,2024-07-31T22:17:33Z,73,94,WF,Minimal,Natural,44.4599,-120.133158,NFIS,10,0.9,NA,NA,Oregon,not_contained
2024-WASES-000475,Black Canyon Fire,WA,Yakima,2024-07-23T02:21:23Z,2024-07-28T00:54:01Z,9211,89,WF,Minimal,Undetermined,46.859273,-120.753257,NFIS,9,4.8,NA,NA,Washington,not_contained
2024-ORUPF-240233,Rough Fire,OR,Douglas,2024-07-17T14:20:19Z,2024-08-01T14:03:50Z,11,10,WF,NA,Natural,43.205486,-122.351851,NFIS,15,0.3,NA,NA,Oregon,not_contained
2024-ORUPF-240283,Loafer Fire,OR,Douglas,2024-07-18T19:22:24Z,2024-07-31T15:24:43Z,36,50,WF,NA,Natural,43.301833,-122.272,NFIS,14,1.2,NA,NA,Oregon,not_contained
2024-MTBRF-024189,West Crooked Fire,ID,Idaho,2024-07-05T22:32:00Z,2024-07-30T20:40:25Z,20,0,WF,Minimal,Natural,48.226353,-110.030325,NFIS,26,2,NA,NA,Idaho,not_contained
2024-CASQF-001362,Borel Fire,CA,Kern,2024-07-24T19:59:59Z,2024-08-01T17:00:12Z,15,39,WF,Active,Undetermined,35.5973,-118.514,NFIS,8,0.1,NA,NA,California,not_contained
2024-WYALX-240288,Owen Creek Fire,WY,Albany,2024-07-24T20:14:00Z,2024-07-25T14:40:28Z,63,NA,WF,NA,Natural,42.211412,-105.364987,NFIS,8,7.2,NA,NA,Wyoming,not_contained
2024-ORUPF-240329,Campwood Fire,OR,Douglas,2024-07-24T01:41:44Z,2024-08-01T14:03:50Z,20,10,WF,NA,Natural,43.225733,-122.246767,NFIS,8,0.3,NA,NA,Oregon,not_contained
2024-ORUPF-240285,Trap Fire,OR,Douglas,2024-07-18T21:29:16Z,2024-07-31T15:24:43Z,15,0,WF,NA,Natural,43.234453,-122.292459,NFIS,13,1.2,NA,NA,Oregon,not_contained
2024-ORUPF-240332,Thin Fire,OR,Douglas,2024-07-24T22:15:27Z,2024-08-01T14:03:50Z,0.6,95,WF,NA,Natural,43.221717,-122.2387,NFIS,7,0.3,NA,NA,Oregon,not_contained
2024-WASES-000477,Retreat Fire,WA,Yakima,2024-07-23T22:46:00Z,2024-08-01T20:13:25Z,31514,37,WF,Active,Human,46.64338,-121.18112,NFIS,8,0,NA,NA,Washington,not_contained
2024-CASDU-017575,Grove 2 Fire,CA,San Diego,2024-07-24T20:12:32Z,2024-07-26T02:49:26Z,863,100,WF,Minimal,Undetermined,33.409448,-116.741601,NFIS,8,6.7,NA,NA,California,contained
2024-ORUPF-240330,Sheep Fire,OR,Douglas,2024-07-24T01:51:59Z,2024-08-01T14:03:50Z,0.3,95,WF,NA,Natural,43.229017,-122.184833,NFIS,8,0.3,NA,NA,Oregon,not_contained
2024-NVWID-020419,Stockade Canyon Fire,NV,Washoe,2024-07-24T02:15:00Z,2024-07-30T01:14:38Z,16251,21,WF,Moderate,Natural,40.772158,-119.754329,NFIS,8,2.8,NA,NA,Nevada,not_contained
2024-MTLG50-000336,182 Fire,MT,Garfield,2024-07-25T04:45:56Z,2024-07-25T15:59:52Z,45.4,NA,WF,NA,Natural,47.0915,-107.40505,NFIS,7,7.2,NA,NA,Montana,not_contained
2024-ORBUD-002538,Cow Creek Fire,OR,Harney,2024-07-25T01:19:04Z,2024-08-01T15:49:52Z,85,NA,WF,NA,Natural,43.688544,-118.679581,NFIS,7,0.2,NA,NA,Oregon,not_contained
2024-AZTNF-001283,Adessa Fire,AZ,Pinal,2024-07-24T23:52:43Z,2024-07-26T17:14:34Z,1424,100,WF,Minimal,Natural,33.292136,-111.190052,NFIS,7,6.1,NA,NA,Arizona,contained
2024-ORBUD-002528,Ritter Fire,OR,Harney,2024-07-24T05:40:00Z,2024-08-01T15:49:49Z,459,100,WF,Active,Natural,43.645419,-118.500192,NFIS,8,0.2,NA,NA,Oregon,contained
2024-AKUYD-000380,T'eedriinjik Fire,AK,Yukon-Koyukuk,2024-07-21T23:17:55Z,2024-07-31T16:45:57Z,17.39,35,WF,Minimal,Undetermined,67.028333,-146.518617,NFIS,10,1.2,NA,NA,Alaska,not_contained
2024-CABTU-013761,Park Fire,CA,Butte,2024-07-24T21:52:43Z,2024-08-01T20:07:36Z,392480,18,WF,Extreme,Undetermined,39.818579,-121.802601,NFIS,7,0,NA,NA,California,not_contained
2024-ORPRD-000523,0523 Camp Creek Fire,OR,Crook,2024-07-23T23:18:00Z,2024-07-25T20:31:10Z,1581,70,WF,Moderate,Natural,44.010958,-120.169877,NFIS,8,7,NA,NA,Oregon,not_contained
2024-IDPAF-005467,Wolf Creek Fire,ID,Adams,2024-07-25T00:51:00Z,2024-07-31T21:41:15Z,909,0,WF,Active,Natural,44.607244,-116.200098,NFIS,7,0.9,NA,NA,Idaho,not_contained
2024-SDSTX-240791,34 Fire,SD,Stanley,2024-07-25T20:56:10Z,2024-07-25T23:27:31Z,168,NA,WF,NA,Undetermined,44.37105,-101.10525,NFIS,6,6.9,NA,NA,South Dakota,not_contained
2024-ORUPF-240336,Wood Fire,OR,Douglas,2024-07-25T23:14:15Z,2024-08-01T14:03:50Z,23,10,WF,NA,Natural,43.231483,-122.249033,NFIS,6,0.3,NA,NA,Oregon,not_contained
2024-ORUPF-240337,Mowich Fire,OR,Douglas,2024-07-25T23:16:39Z,2024-08-01T14:03:50Z,0.4,95,WF,NA,Natural,43.255283,-122.297367,NFIS,6,0.3,NA,NA,Oregon,not_contained
2024-ORUPF-240335,Birds Fire,OR,Douglas,2024-07-25T23:09:26Z,2024-08-01T14:03:50Z,0.1,100,WF,NA,Natural,43.290733,-122.211632,NFIS,6,0.3,NA,NA,Oregon,contained
2024-ORMAF-002541,Sand Fire,OR,Grant,2024-07-25T05:53:35Z,2024-08-01T15:50:00Z,4927,0,WF,Active,Natural,44.039918,-119.286715,NFIS,7,0.2,NA,NA,Oregon,not_contained
2024-ORUPF-240311,Bullpup Fire,OR,Lane,2024-07-19T20:55:54Z,2024-07-26T11:25:06Z,1892,5,CX,Moderate,Undetermined,43.462402,-122.633706,NFIS,12,6.4,NA,NA,Oregon,not_contained
2024-ORMAF-002533,Whiskey Mountain Fire,OR,Harney,2024-07-24T22:48:23Z,2024-08-01T15:50:04Z,4212,25,WF,Active,Natural,43.9092,-119.44245,NFIS,7,0.2,NA,NA,Oregon,not_contained
2024-ORMAF-002540,Parasol Fire,OR,Grant,2024-07-25T03:37:00Z,2024-08-01T15:49:58Z,485,0,WF,Active,Natural,43.996937,-118.867438,NFIS,7,0.2,NA,NA,Oregon,not_contained
2024-IDSCF-240103,Thunder Fire,ID,Lemhi,2024-07-25T01:55:00Z,2024-07-27T12:57:59Z,2474,34,WF,Minimal,Natural,45.027256,-113.940568,NFIS,7,5.3,NA,NA,Idaho,not_contained
2024-WYSHX-240289,Badger Fire,WY,Sheridan,2024-07-24T20:25:00Z,2024-07-26T21:33:50Z,8028,100,WF,Minimal,Undetermined,44.943267,-106.793617,NFIS,8,6,NA,NA,Wyoming,contained
2024-AKTAD-000388,Sled Fire,AK,Yukon-Koyukuk,2024-07-24T02:55:49Z,2024-07-26T18:28:57Z,48,NA,WF,NA,Natural,65.30445,-148.628617,NFIS,8,6.1,NA,NA,Alaska,not_contained
2024-CAMDF-000481,Pencil Fire,CA,Modoc,2024-07-22T21:16:00Z,2024-07-26T20:55:56Z,396,100,WF,Minimal,Undetermined,41.80078,-120.519727,NFIS,9,6,NA,NA,California,contained
2024-IDPAF-005464,Limepoint Fire,ID,Adams,2024-07-25T00:21:00Z,2024-08-01T00:21:19Z,18734,0,WF,Moderate,Natural,45.056113,-116.790052,NFIS,7,0.8,NA,NA,Idaho,not_contained
2024-AZTNF-001300,Sand Stone Fire,AZ,Maricopa,2024-07-26T01:04:09Z,2024-07-31T21:30:18Z,27390,27,WF,Moderate,Natural,33.7363,-111.661,NFIS,6,1,NA,NA,Arizona,not_contained
2024-MTFHA-000088,Mill Pocket Fire,MT,Sanders,2024-07-25T18:03:00Z,2024-07-27T18:47:13Z,153,25,WF,Moderate,Natural,NA,NA,NFIS,7,5.1,NA,NA,Montana,not_contained
2024-MTFHA-000087,Haymaker Fire,MT,Lake,2024-07-25T04:00:00Z,2024-08-01T16:00:24Z,21,NA,WF,NA,NA,NA,NA,NFIS,7,0.2,NA,NA,Montana,not_contained
2024-MTFHA-000083,Big Draw Fire,MT,Flathead,2024-07-22T17:10:00Z,2024-07-26T23:51:34Z,NA,NA,WF,NA,NA,NA,NA,NFIS,10,5.9,NA,NA,Montana,not_contained
2024-MTGNP-000265,Muir Creek Fire,MT,Flathead,2024-07-24T03:48:00Z,2024-07-30T16:22:36Z,30,0,WF,Minimal,Undetermined,48.364504,-113.632965,NFIS,8,2.2,NA,NA,Montana,not_contained
2024-MTFHA-000089,Sullivan Fire,MT,Lake,2024-07-25T22:01:00Z,2024-07-27T03:23:35Z,105,40,WF,Moderate,Natural,NA,NA,NFIS,6,5.7,NA,NA,Montana,not_contained
2024-CASQF-001381,Sawmill Fire,CA,Kern,2024-07-27T04:52:45Z,2024-07-27T14:24:27Z,10,NA,WF,NA,Undetermined,35.685667,-118.467333,NFIS,5,5.3,NA,NA,California,not_contained
2024-UTSWS-000488,Third Canyon Fire,UT,Iron,2024-07-27T00:26:11Z,2024-07-27T17:16:26Z,731,92,WF,Minimal,Natural,38.09473,-113.077404,NFIS,5,5.1,NA,NA,Utah,not_contained
2024-WANES-001631,South Coumbia Basin Fire,WA,Spokane,2024-07-26T20:39:00Z,2024-07-27T23:23:46Z,252,100,WF,Minimal,Human,47.427521,-117.789559,NFIS,5,4.9,NA,NA,Washington,contained
2024-WANES-001634,Upper Cemetery Fire,WA,Spokane,2024-07-26T23:59:00Z,2024-07-30T03:12:40Z,44,100,WF,Minimal,Human,47.65854,-117.465996,NFIS,5,2.7,NA,NA,Washington,contained
2024-IDIPF-000394,Dominion Point Fire,ID,Shoshone,2024-07-25T22:46:23Z,2024-08-01T02:21:35Z,100,0,WF,NA,Undetermined,47.142,-115.521667,NFIS,6,0.8,NA,NA,Idaho,not_contained
2024-IDIPF-000366,East Fork Fire,ID,Shoshone,2024-07-25T12:03:00Z,2024-08-01T02:21:35Z,25,40,WF,NA,Natural,47.133833,-116.519167,NFIS,7,0.8,NA,NA,Idaho,not_contained
2024-IDIPF-000374,Junction Fire,ID,Shoshone,2024-07-25T16:46:00Z,2024-08-01T02:26:07Z,250,40,WF,Minimal,Undetermined,47.10175,-115.56525,NFIS,7,0.8,NA,NA,Idaho,not_contained
2024-AZSCA-001314,Summit Fire,AZ,Graham,2024-07-26T22:49:39Z,2024-07-28T20:06:57Z,5950,90,WF,Minimal,Natural,33.449417,-110.270333,NFIS,5,4,NA,NA,Arizona,not_contained
2024-IDNPT-000415,Gwen Fire,ID,Nez Perce,2024-07-25T01:02:00Z,2024-08-01T01:28:05Z,28805,65,WF,Minimal,Natural,46.525076,-116.733975,NFIS,7,0.8,NA,NA,Idaho,not_contained
2024-AZSCA-001316,Chrome Fire,AZ,Gila,2024-07-26T23:12:42Z,2024-07-27T23:26:24Z,80,NA,WF,NA,Natural,33.539046,-110.632104,NFIS,5,4.9,NA,NA,Arizona,not_contained
2024-MTBDF-246327,Grouse Fire,MT,Beaverhead,2024-07-25T23:10:51Z,2024-07-30T22:12:06Z,800,0,WF,Active,Undetermined,45.67968,-113.065796,NFIS,6,1.9,NA,NA,Montana,not_contained
2024-UTUOA-100162,Spring Hollow Fire,UT,Duchesne,2024-07-26T22:25:00Z,2024-07-28T04:26:49Z,165,NA,WF,NA,Natural,40.477133,-110.215917,NFIS,5,4.7,NA,NA,Utah,not_contained
2024-CODTX-000082,Currant Creek Fire,CO,Delta,2024-07-27T20:20:25Z,2024-07-31T21:17:20Z,182.5,20,WF,Moderate,Undetermined,38.896997,-107.842574,NFIS,5,1,NA,NA,Colorado,not_contained
2024-IDBOF-000677,Boulder Fire,ID,Valley,2024-07-25T00:27:00Z,2024-08-01T04:02:06Z,554,7,WF,Moderate,Natural,44.373681,-116.12776,NFIS,7,0.7,NA,NA,Idaho,not_contained
2024-IDSTF-200476,Clarks Fire,UT,Box Elder,2024-07-23T21:53:00Z,2024-07-30T12:35:49Z,358,55,WF,Minimal,Natural,41.9598,-113.5408,NFIS,8,2.3,NA,NA,Utah,not_contained
2024-IDBOF-000699,Bulltrout Fire,ID,Boise,2024-07-26T00:06:41Z,2024-07-31T20:30:25Z,292,15,WF,Minimal,Natural,44.300246,-115.253585,NFIS,6,1,NA,NA,Idaho,not_contained
2024-AZSCA-001335,Brushy Fire,AZ,Graham,2024-07-27T23:29:27Z,2024-07-30T17:27:38Z,8284,80,WF,Minimal,Natural,33.377859,-110.318613,NFIS,4,2.1,NA,NA,Arizona,not_contained
2024-ORWWF-000338,Cliff Mountain Fire,ID,Adams,2024-07-25T19:12:00Z,2024-08-01T00:35:01Z,1102,0,WF,Minimal,Undetermined,45.280247,-116.660385,NFIS,7,0.8,NA,NA,Idaho,not_contained
2024-ORUPF-240343,Canal Fire,OR,Douglas,2024-07-28T20:54:21Z,2024-08-01T14:03:50Z,1,50,WF,NA,Undetermined,43.25525,-122.2755,NFIS,3,0.3,NA,NA,Oregon,not_contained
2024-ORUPF-240342,Toolbox Fire,OR,Douglas,2024-07-28T20:45:28Z,2024-08-01T14:03:50Z,0.1,95,WF,NA,Undetermined,43.26495,-122.25555,NFIS,3,0.3,NA,NA,Oregon,not_contained
2024-IDIPF-000413,Buffalo Fire,ID,Shoshone,2024-07-27T04:36:45Z,2024-08-01T01:48:52Z,2,100,WF,Moderate,Undetermined,47.147333,-115.525667,NFIS,5,0.8,NA,NA,Idaho,contained
2024-AZTNF-001334,Willow Fire,AZ,Maricopa,2024-07-27T22:20:59Z,2024-07-28T23:41:57Z,51,NA,WF,NA,Natural,33.967332999999996,-111.759333,NFIS,4,3.9,NA,NA,Arizona,not_contained
2024-COGRD-240266,Kings Canyon Fire,CO,Mesa,2024-07-28T20:25:00Z,2024-07-29T19:36:28Z,220,NA,WF,NA,Natural,38.974274,-108.962402,NFIS,4,3,NA,NA,Colorado,not_contained
2024-OR974S-000356,Water Fire,OR,Wallowa,2024-07-26T18:23:00Z,2024-07-30T20:01:30Z,18,NA,WF,NA,Undetermined,45.59005,-117.62299,NFIS,6,2,NA,NA,Oregon,not_contained
2024-OR974S-000357,Mountain View Fire,OR,Wallowa,2024-07-26T18:27:00Z,2024-07-31T16:02:50Z,318,NA,WF,NA,Undetermined,45.6507,-117.669918,NFIS,6,1.2,NA,NA,Oregon,not_contained
2024-OR974S-000336,Charlie Brown Fire,OR,Wallowa,2024-07-25T18:39:00Z,2024-07-30T20:08:27Z,69,NA,WF,NA,Undetermined,45.642,-117.657153,NFIS,7,2,NA,NA,Oregon,not_contained
2024-OR974S-000359,Big Canyon Fire,OR,Wallowa,2024-07-26T19:45:00Z,2024-07-31T23:03:14Z,288,NA,WF,NA,Natural,45.59042,-117.685382,NFIS,6,0.9,NA,NA,Oregon,not_contained
2024-MTLG40-240525,Diamond Fire,MT,Sweet Grass,2024-07-27T23:06:00Z,2024-07-29T02:30:25Z,656,85,WF,Minimal,Undetermined,45.753056,-109.647778,NFIS,4,3.7,NA,NA,Montana,not_contained
2024-IDCMS-000473,Cherry Fire,ID,Idaho,2024-07-25T21:45:00Z,2024-07-29T20:34:51Z,50,NA,WF,NA,Natural,45.433888,-116.240001,NFIS,6,3,NA,NA,Idaho,not_contained
2024-ORMAF-002549,Poison Creek Fire,OR,Grant,2024-07-25T22:04:33Z,2024-08-01T15:49:59Z,624,0,WF,Active,Undetermined,44.011552,-118.847188,NFIS,6,0.2,NA,NA,Oregon,not_contained
2024-IDBOF-000683,Wapiti Fire,ID,Boise,2024-07-25T02:58:00Z,2024-07-31T21:30:23Z,85,0,WF,Moderate,Undetermined,44.148556,-115.200233,NFIS,7,1,NA,NA,Idaho,not_contained
2024-ORVAD-240183,Hole In The Ground Fire,OR,Malheur,2024-07-25T01:18:00Z,2024-07-29T17:55:33Z,98855,90,WF,Minimal,Natural,43.048161,-117.602806,NFIS,7,3.1,NA,NA,Oregon,not_contained
2024-UTCYD-004278,East Canyon Fire,UT,Grand,2024-07-28T22:30:00Z,2024-07-29T18:02:17Z,16.7,100,WF,Minimal,Undetermined,39.342862,-109.117218,NFIS,3,3.1,NA,NA,Utah,contained
2024-AKTAD-000400,Kusquqvak Fire,AK,Yukon-Koyukuk,2024-07-25T23:07:49Z,2024-07-29T18:50:51Z,9.2,NA,WF,NA,Natural,63.945,-152.616667,NFIS,6,3.1,NA,NA,Alaska,not_contained
2024-AKTAD-000402,Sischu Fire,AK,Yukon-Koyukuk,2024-07-25T23:51:22Z,2024-07-30T17:39:24Z,176.5,NA,WF,NA,Natural,64.058333,-152.97,NFIS,6,2.1,NA,NA,Alaska,not_contained
2024-NENES-240835,Coronet Fire,NE,Sioux,2024-07-28T23:42:18Z,2024-07-29T19:18:32Z,55,NA,WF,NA,Undetermined,42.704,-103.5297,NFIS,3,3,NA,NA,Nebraska,not_contained
2024-WYCRX-240839,Stoney Butte Fire,WY,Crook,2024-07-29T17:17:00Z,2024-07-29T19:27:43Z,8.5,NA,WF,NA,Natural,44.774841,-104.347856,NFIS,3,3,NA,NA,Wyoming,not_contained
2024-CAMEU-010035,Grange Fire,CA,Mendocino,2024-07-25T22:38:04Z,2024-07-29T21:39:20Z,90.19,NA,WF,NA,Undetermined,39.054295,-123.4241,NFIS,6,3,NA,NA,California,not_contained
2024-MTBRF-024261,Johnson Fire,MT,Ravalli,2024-07-25T23:24:00Z,2024-07-29T23:43:02Z,1,0,WF,Minimal,Natural,45.850394,-113.700431,NFIS,6,2.9,NA,NA,Montana,not_contained
2024-ORWWF-000354,Devils Gulch Fire,OR,Wallowa,2024-07-26T04:04:14Z,2024-07-30T01:03:38Z,48,NA,WF,NA,Undetermined,45.41688,-117.389109,NFIS,6,2.8,NA,NA,Oregon,not_contained
2024-COARF-000683,Alexander Mountain Fire,CO,Larimer,2024-07-29T17:00:00Z,2024-08-01T13:21:38Z,7648,0,WF,Active,Undetermined,40.428545,-105.251247,NFIS,3,0.3,NA,NA,Colorado,not_contained
2024-SDJOX-240849,Bad River Fire,SD,Stanley,2024-07-30T00:46:44Z,2024-07-30T22:17:41Z,76.9,NA,WF,NA,Natural,44.132295,-100.47626,NFIS,2,1.9,NA,NA,South Dakota,not_contained
2024-MTLG16-000360,Overlook - Dawson Fire,MT,Dawson,2024-07-28T21:55:00Z,2024-07-30T13:49:52Z,5.7,NA,WF,NA,Human,47.1735,-104.66886,NFIS,3,2.3,NA,NA,Montana,not_contained
2024-MTLG39-000362,Woodson - Fallon Fire,MT,Fallon,2024-07-30T01:18:00Z,2024-07-30T14:58:01Z,188.2,NA,WF,NA,Human,46.61815,-104.12182,NFIS,2,2.2,NA,NA,Montana,not_contained
2024-MTHLF-000492,Black Mountain Fire,MT,Lewis and Clark,2024-07-29T20:56:00Z,2024-07-30T15:45:50Z,65,NA,WF,NA,Undetermined,46.997986,-112.838256,NFIS,2,2.2,NA,NA,Montana,not_contained
2024-IDCMS-000475,Rock Creek Fire,ID,Idaho,2024-07-25T23:07:00Z,2024-07-30T20:51:05Z,677,100,WF,Minimal,Natural,45.898635,-116.724604,NFIS,6,2,NA,NA,Idaho,contained
2024-WASPD-000500,Umtanum Fire,WA,Kittitas,2024-07-27T22:46:00Z,2024-07-30T21:14:59Z,410,100,WF,Minimal,Undetermined,46.876062,-120.478877,NFIS,4,2,NA,NA,Washington,contained
2024-IDBOF-000727,Bearskin Fire,ID,Valley,2024-07-29T18:40:00Z,2024-07-30T22:51:05Z,12,0,WF,Minimal,Undetermined,44.400317,-115.475133,NFIS,3,1.9,NA,NA,Idaho,not_contained
2024-WAWFS-001655,Lower Granite Fire,WA,Garfield,2024-07-29T19:39:00Z,2024-08-01T13:01:33Z,14482,50,WF,Minimal,Undetermined,46.567746,-117.54588,NFIS,3,0.3,NA,NA,Washington,not_contained
2024-WANES-001660,Pit Road Fire,WA,Okanogan,2024-07-30T19:55:00Z,2024-07-30T23:07:55Z,3,NA,WF,NA,Human,48.188453,-119.681214,NFIS,2,1.9,NA,NA,Washington,not_contained
2024-IDSCF-240107,Deer Fire,ID,Custer,2024-07-25T20:03:00Z,2024-07-30T23:45:45Z,52,0,WF,Active,Natural,44.54002,-114.837597,NFIS,7,1.9,NA,NA,Idaho,not_contained
2024-COBLX-000694,Stone Canyon Fire,CO,Boulder,2024-07-30T19:34:00Z,2024-08-01T00:36:42Z,1317,20,WF,Moderate,Undetermined,40.265546,-105.539245,NFIS,2,0.8,NA,NA,Colorado,not_contained
2024-UTCPD-000518,Sheep Rock Fire,UT,Beaver,2024-07-30T21:47:00Z,2024-07-31T03:36:15Z,74.96,NA,WF,NA,Human,38.355304,-112.576733,NFIS,1,1.7,NA,NA,Utah,not_contained
2024-NVHTF-040163,Broom Canyon Fire,NV,Nye,2024-07-30T03:00:52Z,2024-07-31T12:58:46Z,102,NA,WF,NA,Natural,38.884208,-115.470062,NFIS,2,1.3,NA,NA,Nevada,not_contained
2024-MSMNF-000413,Green Star Fire,MS,Perry,2024-07-29T22:28:25Z,2024-07-31T13:09:32Z,44,NA,WF,NA,Human,31.139769,-89.061717,NFIS,2,1.3,NA,NA,Mississippi,not_contained
2024-IDNCF-000460,Wye Fire,ID,Idaho,2024-07-25T17:01:26Z,2024-07-31T13:44:08Z,3466,0,WF,Moderate,Undetermined,46.374417,-114.817971,NFIS,7,1.3,NA,NA,Idaho,not_contained
2024-MTLG13-024274,Cfs2407-072924 Fire,MT,Ravalli,2024-07-29T22:02:00Z,2024-07-31T16:53:07Z,0.5,NA,WF,NA,Undetermined,46.249536,-114.134617,NFIS,2,1.1,NA,NA,Montana,not_contained
2024-COLSD-000117,Duffy Fire,CO,Moffat,2024-07-30T22:00:00Z,2024-07-31T16:59:06Z,76,NA,WF,NA,Undetermined,40.44368,-107.78749,NFIS,1,1.1,NA,NA,Colorado,not_contained
2024-WYHDD-240334,206 Fire,WY,Carbon,2024-07-31T01:28:30Z,2024-07-31T20:16:13Z,150,NA,WF,NA,Undetermined,41.776988,-107.206052,NFIS,1,1,NA,NA,Wyoming,not_contained
2024-SDHRX-000365,Limpert 2 Fire,SD,Harding,2024-07-29T23:00:00Z,2024-07-31T21:34:21Z,368.9,NA,WF,NA,Natural,45.367997,-103.255522,NFIS,2,1,NA,NA,South Dakota,not_contained
2024-SDHRX-000364,Limpert 1 Fire,SD,Harding,2024-07-29T23:00:00Z,2024-07-31T21:34:02Z,1498.2,NA,WF,NA,Natural,45.363657,-103.269852,NFIS,2,1,NA,NA,South Dakota,not_contained
2024-WYPLX-240331,Pleasant Valley Fire,WY,Platte,2024-07-30T20:02:00Z,2024-08-01T02:37:54Z,28000,0,WF,Extreme,Undetermined,42.280254,-104.729919,NFIS,2,0.7,NA,NA,Wyoming,not_contained
2024-COBLX-000697,Lake Shore Fire,CO,Boulder,2024-07-31T20:44:55Z,2024-07-31T23:50:38Z,7,NA,WF,NA,Undetermined,39.957222,-105.369444,NFIS,0,0.9,NA,NA,Colorado,not_contained
2024-SDCRA-000040,Yellow One Fire,SD,Ziebach,2024-07-29T17:30:00Z,2024-08-01T13:50:17Z,NA,NA,WF,NA,NA,NA,NA,NFIS,3,0.3,NA,NA,South Dakota,not_contained
2024-SDCRA-000045,Cotton Wood Fire,SD,Ziebach,2024-07-30T22:18:00Z,2024-08-01T20:02:32Z,NA,NA,WF,NA,NA,NA,NA,NFIS,1,0,NA,NA,South Dakota,not_contained
2024-MTFHA-000085,Garceau Fire,MT,Lake,2024-07-25T04:04:00Z,2024-08-01T16:10:03Z,NA,NA,WF,NA,NA,NA,NA,NFIS,7,0.2,NA,NA,Montana,not_contained
2024-MTFHA-000076,Sloans Fire,MT,Sanders,2024-07-17T22:28:00Z,2024-08-01T16:37:35Z,NA,NA,WF,NA,NA,NA,NA,NFIS,14,0.2,NA,NA,Montana,not_contained
2024-AZTNF-001261,Pinto Fire,AZ,Gila,2024-07-22T19:56:00Z,2024-08-01T18:43:52Z,23,NA,WF,NA,Natural,33.411293,-110.923462,NFIS,10,0.1,NA,NA,Arizona,not_contained
2024-MTLG52-000374,Rocky - Wibaux Fire,MT,Wibaux,2024-07-30T23:20:00Z,2024-08-01T19:53:04Z,1,NA,WF,NA,Human,46.970605,-104.127864,NFIS,1,0,NA,NA,Montana,not_contained
NA,2024 SQF Lightning Complex,CA,"Kern, Tulare",2024-07-13T12:34:56Z,2024-08-01T10:33:03Z,89879,49,Wildfire,NA,NA,35.986772,-118.311422,Cal Fire,19,0,East of Johnsdale in Tulare County,https://www.fire.ca.gov/incidents/2024/7/13/2024-sqf-lightning-complex/,California,not_contained
NA,Fork Fire,CA,Los Angeles,2024-07-19T15:23:05Z,2024-07-28T22:34:06Z,301,100,Wildfire,NA,NA,34.239686,-117.76113,Cal Fire,13,4,"East Fork Road & Glendora Mountain Road, Camp Williams",https://www.fire.ca.gov/incidents/2024/7/19/fork-fire/,California,contained
NA,Hawarden Fire,CA,Riverside,2024-07-21T13:37:01Z,2024-07-25T23:06:26Z,527,100,Wildfire,NA,NA,33.9278521,-117.3727011,Cal Fire,11,7,"Hawarden Drive, Riverside, CA",https://www.fire.ca.gov/incidents/2024/7/21/hawarden-fire/,California,contained
NA,Gold Complex,CA,Plumas,2024-07-22T14:34:07Z,2024-07-31T17:36:44Z,3007,98,Wildfire,NA,NA,39.726014,-120.535158,Cal Fire,10,1,Plumas National Forest - Beckwourth Ranger District,https://www.fire.ca.gov/incidents/2024/7/22/gold-complex/,California,not_contained
NA,Metz Fire,CA,Monterey,2024-07-23T15:13:43Z,2024-07-25T09:50:36Z,1100,100,Wildfire,NA,NA,36.3404047,-121.199629,Cal Fire,9,7,"Metz Road, east of Greenfield  ",https://www.fire.ca.gov/incidents/2024/7/23/metz-fire/,California,contained
NA,Cow Camp Fire,CA,Mono,2024-07-23T15:40:13Z,2024-07-28T22:32:54Z,292,100,Wildfire,NA,NA,38.300167,-119.074167,Cal Fire,9,4,"Cow Camp Road at Bodie Masonic Road, Bridgeport",https://www.fire.ca.gov/incidents/2024/7/23/cow-camp-fire/,California,contained
NA,R-6 Fire,CA,Lassen,2024-07-23T20:18:39Z,2024-07-30T17:31:56Z,26,100,Wildfire,NA,NA,40.914833,-120.0485,Cal Fire,9,2,North of Buckhorn Rd and West of the California and Nevada Border,https://www.fire.ca.gov/incidents/2024/7/23/r-6-fire/,California,contained
NA,Acorn Fire,CA,Lake,2024-07-25T12:54:34Z,2024-07-28T22:32:09Z,151,100,Wildfire,NA,NA,39.140133,-122.87667,Cal Fire,7,4,"1000 block of Manzanita Circle, Upper Lake",https://www.fire.ca.gov/incidents/2024/7/25/acorn-fire/,California,contained
NA,Macy Fire,CA,Riverside,2024-07-25T17:43:22Z,2024-07-28T22:31:23Z,145,100,Wildfire,NA,NA,33.656742,-117.383235,Cal Fire,7,4,"Macy Street and Orange Street, Lake Elsinore",https://www.fire.ca.gov/incidents/2024/7/25/macy-fire/,California,contained
NA,Flynn Fire,CA,Alameda,2024-07-25T21:48:20Z,2024-07-28T22:34:55Z,389,100,Wildfire,NA,NA,37.724532,-121.69605,Cal Fire,7,4,I 580 E and N Flynn Rd in the Altamont,https://www.fire.ca.gov/incidents/2024/7/25/flynn-fire/,California,contained
NA,Creek Fire,CA,Alameda,2024-07-26T15:57:00Z,2024-08-01T07:34:04Z,744,90,Wildfire,NA,NA,37.515462,-121.830534,Cal Fire,6,0,Welch Creek Rd and Calaveras Rd in Sunol,https://www.fire.ca.gov/incidents/2024/7/26/creek-fire/,California,not_contained
NA,Sentinel Fire,CA,Fresno,2024-07-25T17:07:14Z,2024-07-30T13:28:59Z,20,NA,Wildfire,NA,NA,36.98268,-118.61484,Cal Fire,7,2,Sequoia and Kings Canyon National Park,https://www.fire.ca.gov/incidents/2024/7/25/sentinel-fire/,California,not_contained
NA,Nixon Fire,CA,Riverside,2024-07-29T12:30:48Z,2024-08-01T08:23:05Z,5192,14,Wildfire,NA,NA,33.4773,-116.7805,Cal Fire,3,0,"Tule Valley Road and Richard Nixon Boulevard, Aguanga",https://www.fire.ca.gov/incidents/2024/7/29/nixon-fire/,California,not_contained
NA,Cougar Fire,CA,Tehama,2024-07-29T16:20:54Z,2024-07-31T22:43:24Z,9,100,Wildfire,NA,NA,40.002008,-122.404759,Cal Fire,3,1,"Cougar Drive near Hillcrest Drive, Corning ",https://www.fire.ca.gov/incidents/2024/7/29/cougar-fire/,California,contained
NA,Carmen Fire,CA,Riverside,2024-07-29T16:37:32Z,2024-07-30T22:02:04Z,11,100,Wildfire,NA,NA,33.910649,-116.782856,Cal Fire,3,2,"Broadway and Carmens Av, in Cabazon",https://www.fire.ca.gov/incidents/2024/7/29/carmen-fire/,California,contained
NA,Border 66 Fire,CA,San Diego,2024-07-30T11:17:16Z,2024-07-31T22:48:20Z,300,100,Wildfire,NA,NA,32.5736,-116.6961,Cal Fire,2,1,"West of Highway 188, Tecate",https://www.fire.ca.gov/incidents/2024/7/30/border-66-fire/,California,contained
NA,Italian Fire,CA,Fresno,2024-07-29T12:30:39Z,2024-07-30T14:18:13Z,46,NA,Wildfire,NA,NA,37.1336,-119.394,Cal Fire,3,2,"Italian Bar Road and Jose Basin Road, Shaver Lake",https://www.fire.ca.gov/incidents/2024/7/29/italian-fire/,California,not_contained
NA,Pedro Fire,CA,"Mariposa, Tuolumne",2024-07-30T12:47:53Z,2024-08-01T13:20:33Z,3812,15,Wildfire,NA,NA,37.689773,-120.31848,Cal Fire,2,0,"Arbolada Drive, Lake Don Pedro",https://www.fire.ca.gov/incidents/2024/7/30/pedro-fire/,California,not_contained
NA,Plantation Fire,CA,Modoc,2024-07-17T11:40:20Z,2024-08-01T08:09:29Z,31,100,Wildfire,NA,NA,41.842269,-120.341894,Cal Fire,15,0,"East of Hwy 395 and Goose Lake, North of Davis Creek",https://www.fire.ca.gov/incidents/2024/7/17/plantation-fire/,California,contained
NA,Pole Fire,CA,San Bernardino,2024-07-30T16:26:10Z,2024-08-01T07:13:42Z,300,70,Wildfire,NA,NA,34.413261,-117.172494,Cal Fire,2,0,"Roundup Way at Central Road, Apple Valley",https://www.fire.ca.gov/incidents/2024/7/30/pole-fire/,California,not_contained
NA,Dino Fire,CA,Merced,2024-07-31T15:02:29Z,2024-07-31T19:21:18Z,15,100,Wildfire,NA,NA,37.068124,-121.213195,Cal Fire,1,1,"Pacheco Pass Highway, Hollister",https://www.fire.ca.gov/incidents/2024/7/31/dino-fire/,California,contained
